[Satellite]
VERSION=1.1
NAME=SL-14 R/B
NICKNAME=SL-14 R/B
TLE1=1 21423U 91042B   19317.13517613  .00000088  00000-0  86983-5 0  9991
TLE2=2 21423  82.4965 220.0020 0016138 249.8106 110.1371 14.79775351532567
STATUS=0
